#dP2021  1  7  0  0  0.00000000      96 __u+U ITR00 EXT  IAC
## 2139 345600.00000000   900.00000000 59221 0.0000000000000
+  115   C06C07C08C09C10C11C12C13C14C16C19C20C21C22C23C24C25
+        C26C27C28C29C30C32C33C34C35C36C37C38C39C40C43C44C45
+        C46E01E02E03E04E05E07E08E09E11E12E13E14E15E18E19E21
+        E24E25E26E27E30E31E33E36G01G02G03G04G05G06G07G08G09
+        G10G11G12G13G14G15G16G17G18G19G20G21G22G23G24G25G26
+        G27G28G29G30G31G32J01J02J03R01R02R03R04R05R07R08R09
+        R11R12R13R14R15R16R17R18R19R20R21R22R24  0  0  0  0
++         9  9 10  8  9  8  8 10  9 10 10  9  8  9  9  9  8
++        10  8  8  9  8  8  9  9  8 10  8 12 15 14  9 13 13
++        13  8  7  6  8  7  9  7  7  8  9  7  8  7  7  7  8
++         9  8  8  7  8  7  8  8  8  7  6  7  8  7  7  7  7
++         8  6  7  6  6  8  6  7  7  8  7  7  8  9  6  8  9
++         8  7  7  7  7  7 11 10  7 10  8  8  8 10  8  7  8
++         9  8  8  7  8  9  8  7  9  9  9  9  9  0  0  0  0
%c M  cc GPS ccc cccc cccc cccc cccc ccccc ccccc ccccc ccccc
%c cc cc ccc ccc cccc cccc cccc cccc ccccc ccccc ccccc ccccc
%f  0.0000000  0.000000000  0.00000000000  0.000000000000000
%f  0.0000000  0.000000000  0.00000000000  0.000000000000000
%i    0    0    0    0      0      0      0      0         0
%i    0    0    0    0      0      0      0      0         0
/* IAC                                ULTRA-RAPID PREDICTION
/* S/V CLOCKS ARE ALIGNED TO GNSS TIME                      
/* G:C1WC2W R:C1PC2P E:C1XC5X C:C2IC6I J:C1CC2S             
/* PCV:IGS14_2134 OL/AL:FES2004  NONE     YN ORB:CoN CLK:CoN
*  2021 01 07  6 15  0.00000000
PC06 -22674.295550  26423.668037  23876.478711    114.250685
PC07 -12693.870339  38936.300486  11328.954280   -203.375769
PC08  -6271.902461  21685.409564 -35439.579191   -870.128770
PC09  -5885.163597  26267.341691  32618.033007    820.372622
PC10  -3580.942222  42246.794824     44.052702   -108.535790
PC11  22424.540514   6296.581213 -15267.199146   -869.328018
PC12   4875.513610  14629.478705 -23214.162008    713.943039
PC13   7355.672697  29310.613631 -29179.008369     87.044762
PC14  12709.611746  10948.703217  22328.962880   -151.379694
PC16 -21712.967952  26414.197964  24619.692016   -652.255695
PC19 -16432.680722    -99.261192 -22535.869798    681.917449
PC20  -7752.324669 -18655.216098 -19231.511902   -909.323169
PC21  -6019.633831  26922.758803   4272.398421   -782.963427
PC22 -15877.836111  19027.522185 -12854.440619   -837.033174
PC23  13752.787963  -8786.579159 -22634.819812   -883.981383
PC24  16788.737033  22145.899401   2317.287441   -738.282267
PC25  21976.318580   8462.916093 -14958.934945   -888.583688
PC26   3388.431861  21847.213209  16996.877023    966.499937
PC27   6275.555579 -16351.188645  21717.054599    462.285408
PC28  23477.998390 -11238.739764  10060.728014   -124.711785
PC29 -26883.136592    569.370654   7458.755125    335.210995
PC30 -14544.575858 -11581.304537  20804.963515    427.888720
PC32   5847.389049 -26955.034703  -4219.729304   -882.178373
PC33  16441.012098    151.453440  22547.168300   -903.357172
PC34  15200.133902  11317.716618 -20494.719349   -768.801401
PC35 -23228.011063  11931.706575  -9792.545176   -477.315332
PC36 -21825.781081  -9272.559210  14738.271388   -783.258965
PC37  -2201.860836 -21635.657830 -17487.291429   -860.794160
PC38  -5903.074641  24498.761286 -33750.714607    122.436493
PC39 -18090.362219  27943.863554  25799.103867     27.172548
PC40 -10731.424610  40623.367635   4381.268762    118.746462
PC43  26797.616227    -92.479414  -7829.543168   -540.881262
PC44  -5879.737234  16672.940069 -21584.901424    -26.106016
PC45 -13630.572299   8757.901745  22723.729544    328.719281
PC46 -17331.748574 -21846.481909  -1555.417815    463.683646
PE01  16113.137174  18642.150802 -16389.604879  -1019.564772
PE02 -16147.275727 -18572.764746  16463.966886    189.239226
PE03 -16268.332822  -7447.317171 -23590.255899   -384.569573
PE04  24229.407220 -10719.204402  13198.216540   -683.746523
PE05   1368.164578 -21517.258087 -20285.741017   -314.942111
PE07 -18040.665484  22895.592304   5172.390932   -484.478404
PE08 -24136.040193  11158.871683 -13020.815129   6065.718340
PE09  17831.166074 -23007.852387  -5338.368989   5807.310027
PE11  12984.057481 -12477.420158  23497.124386   6509.970638
PE12  27621.131644    151.567927  10669.718346   5419.081960
PE13 -13305.105827  12261.747951 -23413.308795    409.806655
PE14   3495.613302  21108.439440 -24582.956321  -1286.154647
PE15 -27585.769649    -55.835095 -10717.956631    835.469300
PE18  -5990.794106 -13662.097838  18068.900313  -1405.616762
PE19  14463.191106   9394.624611  24054.416350    172.220854
PE21   6883.617536  28771.286891    811.923583   -641.487468
PE24   7208.577913 -22057.138470 -18404.893692   -676.398960
PE25  -6780.900865 -28803.741206   -972.436135   -523.812410
PE26   9379.069662  17532.965299 -21913.055664   2293.904265
PE27  -6693.511929  22482.898527  18046.700557     56.303841
PE30 -16492.055809   2114.116271  24482.820665   3282.873884
PE31  16235.274794  -3047.448290 -24553.781657   -477.138248
PE33  25628.883180  12306.152088  -8233.442487   -464.666199
PE36  -8761.767369 -17354.826006  22332.519521    457.571904
PG01  22005.548487  14796.038366  -3708.829429    784.273176
PG02  -3948.459191 -17324.226391  20399.336367   -563.216669
PG03  12800.011855  14869.908177  17868.353338    -49.861923
PG04  16468.821435   6498.433369  19815.369678   -170.750385
PG05  -3287.557416 -26184.245240  -2099.774152    -30.341803
PG06  10844.082918 -10716.793955  21817.933362     -4.647338
PG07  24090.893622   4679.116277 -10420.148259     12.146120
PG08   9295.357257  11889.421152 -21856.661528     -5.698484
PG09  23087.796397  -4550.802801  12270.653984   -310.070746
PG10 -11906.755911  15107.345087 -18095.057618    -33.604459
PG11  17321.105317  12505.466358 -16008.374762    -59.926343
PG12  -9925.413057 -18879.507216  15682.269050     16.362019
PG13   1799.078666 -16562.545058 -20795.134605     83.206824
PG14  13441.002608 -12889.522823 -18944.836064     81.149093
PG15 -11872.022739 -11040.459691 -21419.599113   -178.026567
PG16   -232.539811  26255.186527  -1818.600676   -261.473866
PG17  21505.647111 -15054.451494   4408.528506    377.056443
PG18 -22994.174365  -2555.652141 -13101.642430    339.348361
PG19  17676.657208 -16500.199216  10606.087662    -55.180613
PG20 -15573.316325   2443.087431 -21438.792418    525.274359
PG21  18209.937121  16132.582366 -10383.946434     84.611439
PG22  11214.020569  21446.113167  11323.563670   -702.530432
PG23 -14891.383794   3760.439189 -21691.921793    114.924127
PG24 -20176.186847 -15689.915601  -8165.120881      4.004564
PG25 -14930.934943  -4860.521619  21209.636333     54.779352
PG26  -5455.041163  23854.477131   9953.380293     26.195239
PG27  -3997.089355  17846.746563 -19277.587832    -50.928109
PG28  12190.890202 -16385.094947 -16512.857736    633.050113
PG29 -22915.001838   2161.537670  13254.866361   -271.029943
PG30  18594.282009  -4922.505232 -18361.266811   -364.942324
PG31  -9070.621214  12390.016928  21616.180405    -92.370968
PG32 -20337.177426  16428.551633   4239.192301     12.911092
PJ01 -25813.980449  31709.669158  -5829.387989   -335.913187
PJ02 -25463.779885  23225.731495  29193.479859      0.538807
PJ03 -33064.368330  20437.663426 -11444.509254     -5.431947
PR01 -14994.767300  18548.701387  -9062.756421     73.134567
PR02  -5886.516229  21684.863085  12048.918742    461.824643
PR03   6216.441694  10621.056999  22370.825666     28.692569
PR04  14445.266779  -6372.682211  20058.332791     68.936388
PR05  14795.198118 -19759.301245   6487.164517     64.286169
PR07  -6515.658793 -10151.209210 -22451.151383    -42.078490
PR08 -14513.345417   6352.525455 -19935.923044    -56.724635
PR09  -6739.037907 -21857.226244 -11210.675344     17.238459
PR11 -14761.928280  -6235.052109  19852.977885      4.799078
PR12  -5681.277683  11149.821206  22246.980749    194.617952
PR13   6677.437185  21679.071661  11642.255646    -48.983086
PR14  15117.628970  19580.180831  -6230.875852     59.570883
PR15  14640.223661   6081.246298 -19963.284753    106.007500
PR16   4898.549412 -12224.986398 -21895.070369     -9.944996
PR17  17592.163026   7580.075340 -16806.529495    389.082413
PR18  25487.426608    656.529805  -1405.912182     62.319535
PR19  20383.300752  -5808.712006  14196.761413   -126.854343
PR20   1283.375277 -10330.270613  23302.786789   -430.594601
PR21 -18503.907802  -7214.445370  16031.259557   -178.627805
PR22 -25455.401778   -261.673451    246.684981    -91.160785
PR24   -329.969934  10823.256544 -23071.546776     26.866897
EOF
